STARLINK-3819           
1 52349U 22045U   26068.64476984 -.00000696  00000+0 -25642-4 0  9991
2 52349  53.2167 199.3213 0001299 109.9051 250.2081 15.08835795215774
RAISE-4                 
1 67073U 25297B   26068.97636248  .00005682  00000+0  37087-3 0  9993
2 67073  97.4953 219.2703 0012713  22.7159 337.4629 15.08174958 12933
