[{"OBJECT_NAME":"STARLINK-3819","OBJECT_ID":"2022-045U","EPOCH":"2026-03-09T15:28:28.114176","MEAN_MOTION":15.08835795,"ECCENTRICITY":0.0001299,"INCLINATION":53.2167,"RA_OF_ASC_NODE":199.3213,"ARG_OF_PERICENTER":109.9051,"MEAN_ANOMALY":250.2081,"EPHEMERIS_TYPE":0,"CLASSIFICATION_TYPE":"U","NORAD_CAT_ID":52349,"ELEMENT_SET_NO":999,"REV_AT_EPOCH":21577,"BSTAR":-2.5642e-5,"MEAN_MOTION_DOT":-6.96e-6,"MEAN_MOTION_DDOT":0},{"OBJECT_NAME":"RAISE-4","OBJECT_ID":"2025-297B","EPOCH":"2026-03-09T23:25:57.718272","MEAN_MOTION":15.08174958,"ECCENTRICITY":0.00127133,"INCLINATION":97.4953,"RA_OF_ASC_NODE":219.2703,"ARG_OF_PERICENTER":22.7159,"MEAN_ANOMALY":337.4629,"EPHEMERIS_TYPE":0,"CLASSIFICATION_TYPE":"U","NORAD_CAT_ID":67073,"ELEMENT_SET_NO":999,"REV_AT_EPOCH":1293,"BSTAR":0.00037087145,"MEAN_MOTION_DOT":5.682e-5,"MEAN_MOTION_DDOT":0}]
